{
  "type": "FeatureCollection",
  "features": [
    {
      "type": "Feature",
      "properties": {
        "norad_id": 67145,
        "name": "KUIPER-00204",
        "group": "last-30-days",
        "lat": -47.427453647399126,
        "lon": 3.7776631183647607,
        "alt_km": 462.1497609201033,
        "timestamp": "2025-12-25T16:53:13.376405+00:00",
        "meta_object_name": "KUIPER-00204",
        "meta_object_id": "2025-301N",
        "meta_epoch": "2025-12-25T06:00:04.000320",
        "meta_mean_motion": 15.36515045,
        "meta_eccentricity": 0.00020951,
        "meta_inclination": 51.8743,
        "meta_ra_of_asc_node": 64.7194,
        "meta_arg_of_pericenter": 80.8495,
        "meta_mean_anomaly": 219.1628,
        "meta_ephemeris_type": 0,
        "meta_classification_type": "U",
        "meta_norad_cat_id": 67145,
        "meta_element_set_no": 999,
        "meta_rev_at_epoch": 239,
        "meta_bstar": 0.0006452435,
        "meta_mean_motion_dot": 0.00023035,
        "meta_mean_motion_ddot": 0,
        "tle_line1": "1 67145U 25301N   25359.25004630  .00023035  00000+0  64524-3 0  9994",
        "tle_line2": "2 67145  51.8743  64.7194 0002095  80.8495 219.1628 15.36515045  2392"
      },
      "geometry": {
        "type": "Point",
        "coordinates": [
          3.7776631183647607,
          -47.427453647399126
        ]
      }
    },
    {
      "type": "Feature",
      "properties": {
        "norad_id": 67146,
        "name": "KUIPER-00210",
        "group": "last-30-days",
        "lat": -22.216568875335273,
        "lon": -98.5735640093942,
        "alt_km": 462.84784950417725,
        "timestamp": "2025-12-25T16:53:13.376415+00:00",
        "meta_object_name": "KUIPER-00210",
        "meta_object_id": "2025-301P",
        "meta_epoch": "2025-12-25T06:00:04.000320",
        "meta_mean_motion": 15.34128865,
        "meta_eccentricity": 0.00107414,
        "meta_inclination": 51.8597,
        "meta_ra_of_asc_node": 64.8907,
        "meta_arg_of_pericenter": 147.5545,
        "meta_mean_anomaly": 74.3123,
        "meta_ephemeris_type": 0,
        "meta_classification_type": "U",
        "meta_norad_cat_id": 67146,
        "meta_element_set_no": 999,
        "meta_rev_at_epoch": 245,
        "meta_bstar": 0.00060275365,
        "meta_mean_motion_dot": 0.00019917,
        "meta_mean_motion_ddot": 0,
        "tle_line1": "1 67146U 25301P   25359.25004630  .00019917  00000+0  60275-3 0  9998",
        "tle_line2": "2 67146  51.8597  64.8907 0010741 147.5545  74.3123 15.34128865  2453"
      },
      "geometry": {
        "type": "Point",
        "coordinates": [
          -98.5735640093942,
          -22.216568875335273
        ]
      }
    },
    {
      "type": "Feature",
      "properties": {
        "norad_id": 67147,
        "name": "KUIPER-00221",
        "group": "last-30-days",
        "lat": -51.21021810270973,
        "lon": -39.645408295867405,
        "alt_km": 466.50616706999426,
        "timestamp": "2025-12-25T16:53:13.376425+00:00",
        "meta_object_name": "KUIPER-00221",
        "meta_object_id": "2025-301Q",
        "meta_epoch": "2025-12-25T06:00:04.000320",
        "meta_mean_motion": 15.35694805,
        "meta_eccentricity": 0.0005239,
        "meta_inclination": 51.8716,
        "meta_ra_of_asc_node": 64.7837,
        "meta_arg_of_pericenter": 111.611,
        "meta_mean_anomaly": 161.4701,
        "meta_ephemeris_type": 0,
        "meta_classification_type": "U",
        "meta_norad_cat_id": 67147,
        "meta_element_set_no": 999,
        "meta_rev_at_epoch": 177,
        "meta_bstar": 0.00066218911,
        "meta_mean_motion_dot": 0.00023034,
        "meta_mean_motion_ddot": 0,
        "tle_line1": "1 67147U 25301Q   25359.25004630  .00023034  00000+0  66219-3 0  9998",
        "tle_line2": "2 67147  51.8716  64.7837 0005239 111.6110 161.4701 15.35694805  1771"
      },
      "geometry": {
        "type": "Point",
        "coordinates": [
          -39.645408295867405,
          -51.21021810270973
        ]
      }
    },
    {
      "type": "Feature",
      "properties": {
        "norad_id": 67148,
        "name": "KUIPER-00232",
        "group": "last-30-days",
        "lat": -44.75412019831284,
        "lon": 11.381048371953344,
        "alt_km": 460.8997551681923,
        "timestamp": "2025-12-25T16:53:13.376439+00:00",
        "meta_object_name": "KUIPER-00232",
        "meta_object_id": "2025-301R",
        "meta_epoch": "2025-12-25T06:00:04.000320",
        "meta_mean_motion": 15.36675501,
        "meta_eccentricity": 0.00015589,
        "meta_inclination": 51.8742,
        "meta_ra_of_asc_node": 64.7119,
        "meta_arg_of_pericenter": 57.916,
        "meta_mean_anomaly": 247.7611,
        "meta_ephemeris_type": 0,
        "meta_classification_type": "U",
        "meta_norad_cat_id": 67148,
        "meta_element_set_no": 999,
        "meta_rev_at_epoch": 216,
        "meta_bstar": 0.00063300899,
        "meta_mean_motion_dot": 0.00022708,
        "meta_mean_motion_ddot": 0,
        "tle_line1": "1 67148U 25301R   25359.25004630  .00022708  00000+0  63301-3 0  9995",
        "tle_line2": "2 67148  51.8742  64.7119 0001558  57.9160 247.7611 15.36675501  2166"
      },
      "geometry": {
        "type": "Point",
        "coordinates": [
          11.381048371953344,
          -44.75412019831284
        ]
      }
    },
    {
      "type": "Feature",
      "properties": {
        "norad_id": 67149,
        "name": "KUIPER-00241",
        "group": "last-30-days",
        "lat": -50.6907549311241,
        "lon": -11.033071786672343,
        "alt_km": 463.9189955044012,
        "timestamp": "2025-12-25T16:53:13.376450+00:00",
        "meta_object_name": "KUIPER-00241",
        "meta_object_id": "2025-301S",
        "meta_epoch": "2025-12-25T06:00:04.000320",
        "meta_mean_motion": 15.36209293,
        "meta_eccentricity": 0.00029605,
        "meta_inclination": 51.874,
        "meta_ra_of_asc_node": 64.7424,
        "meta_arg_of_pericenter": 99.8157,
        "meta_mean_anomaly": 190.4344,
        "meta_ephemeris_type": 0,
        "meta_classification_type": "U",
        "meta_norad_cat_id": 67149,
        "meta_element_set_no": 999,
        "meta_rev_at_epoch": 261,
        "meta_bstar": 0.00060821873,
        "meta_mean_motion_dot": 0.00021472,
        "meta_mean_motion_ddot": 0,
        "tle_line1": "1 67149U 25301S   25359.25004630  .00021472  00000+0  60822-3 0  9998",
        "tle_line2": "2 67149  51.8740  64.7424 0002960  99.8157 190.4344 15.36209293  2611"
      },
      "geometry": {
        "type": "Point",
        "coordinates": [
          -11.033071786672343,
          -50.6907549311241
        ]
      }
    },
    {
      "type": "Feature",
      "properties": {
        "norad_id": 67150,
        "name": "KUIPER-00245",
        "group": "last-30-days",
        "lat": -50.59107284156971,
        "lon": -44.47849691552396,
        "alt_km": 466.35965099598707,
        "timestamp": "2025-12-25T16:53:13.376471+00:00",
        "meta_object_name": "KUIPER-00245",
        "meta_object_id": "2025-301T",
        "meta_epoch": "2025-12-25T06:00:04.000320",
        "meta_mean_motion": 15.35600111,
        "meta_eccentricity": 0.00052455,
        "meta_inclination": 51.8723,
        "meta_ra_of_asc_node": 64.7887,
        "meta_arg_of_pericenter": 119.5883,
        "meta_mean_anomaly": 150.519,
        "meta_ephemeris_type": 0,
        "meta_classification_type": "U",
        "meta_norad_cat_id": 67150,
        "meta_element_set_no": 999,
        "meta_rev_at_epoch": 177,
        "meta_bstar": 0.00068891909,
        "meta_mean_motion_dot": 0.00023909,
        "meta_mean_motion_ddot": 0,
        "tle_line1": "1 67150U 25301T   25359.25004630  .00023909  00000+0  68892-3 0  9992",
        "tle_line2": "2 67150  51.8723  64.7887 0005245 119.5883 150.5190 15.35600111  1777"
      },
      "geometry": {
        "type": "Point",
        "coordinates": [
          -44.47849691552396,
          -50.59107284156971
        ]
      }
    },
    {
      "type": "Feature",
      "properties": {
        "norad_id": 67151,
        "name": "KUIPER-00246",
        "group": "last-30-days",
        "lat": -51.85178710219415,
        "lon": -26.764459299186456,
        "alt_km": 465.4484056775991,
        "timestamp": "2025-12-25T16:53:13.376484+00:00",
        "meta_object_name": "KUIPER-00246",
        "meta_object_id": "2025-301U",
        "meta_epoch": "2025-12-25T06:00:04.000320",
        "meta_mean_motion": 15.35886061,
        "meta_eccentricity": 0.00039779,
        "meta_inclination": 51.8733,
        "meta_ra_of_asc_node": 64.7645,
        "meta_arg_of_pericenter": 107.7596,
        "meta_mean_anomaly": 173.0791,
        "meta_ephemeris_type": 0,
        "meta_classification_type": "U",
        "meta_norad_cat_id": 67151,
        "meta_element_set_no": 999,
        "meta_rev_at_epoch": 230,
        "meta_bstar": 0.000705502,
        "meta_mean_motion_dot": 0.00024721,
        "meta_mean_motion_ddot": 0,
        "tle_line1": "1 67151U 25301U   25359.25004630  .00024721  00000+0  70550-3 0  9990",
        "tle_line2": "2 67151  51.8733  64.7645 0003977 107.7596 173.0791 15.35886061  2308"
      },
      "geometry": {
        "type": "Point",
        "coordinates": [
          -26.764459299186456,
          -51.85178710219415
        ]
      }
    }
  ]
}